COSMOS 2419 (714)       
1 28915U 05050A   16180.67261799 -.00000041  00000-0  00000+0 0  9993
2 28915  65.3274  77.7761 0016863 351.7563 317.7211  2.13110816 81793
COSMOS 2425 (716)       
1 29670U 06062A   16181.17207566 -.00000045  00000-0  10000-3 0  9993
2 29670  65.6280 316.7512 0020466 350.0441  39.9972  2.13104979 74010
COSMOS 2426 (717)       
1 29671U 06062B   16180.87129984 -.00000042  00000-0  10000-3 0  9994
2 29671  65.6470 316.8433 0018103 159.9361 220.1863  2.13102998 74019
COSMOS 2424 (715)       
1 29672U 06062C   16181.09606037 -.00000044  00000-0  10000-3 0  9991
2 29672  65.6307 316.7644 0017568 158.8128 210.0177  2.13102355 74018
COSMOS 2433 (720)       
1 32275U 07052A   16180.71242731 -.00000041  00000-0  10000-3 0  9996
2 32275  65.3426  77.5457 0002704 295.8506 293.5981  2.13104801 67516
COSMOS 2432 (719)       
1 32276U 07052B   16181.14343530 -.00000043  00000-0  10000-3 0  9996
2 32276  65.3538  77.5974 0012969 339.8463 174.0506  2.13104277 67524
COSMOS 2434 (721)       
1 32393U 07065A   16181.09894313 -.00000045  00000-0  00000+0 0  9991
2 32393  65.2471 316.0714 0005814 109.5698 308.3396  2.13102922 66236
COSMOS 2436 (723)       
1 32395U 07065C   16181.06144556 -.00000045  00000-0  10000-3 0  9992
2 32395  65.2603 316.1153 0016359 359.8509 121.3132  2.13102983 66160
COSMOS 2443 (725)       
1 33379U 08046B   16180.68231899 -.00000041  00000-0  10000-3 0  9995
2 33379  65.2710  76.9625 0016186 184.9328 286.3750  2.13101408 60388
COSMOS 2456 (730)       
1 36111U 09070A   16181.02316492  .00000113  00000-0  00000+0 0  9996
2 36111  64.1822 195.6601 0006317 296.1713 233.2039  2.13102980 50891
COSMOS 2457 (733)       
1 36112U 09070B   16181.13823170  .00000113  00000-0  00000+0 0  9995
2 36112  64.1644 195.5826 0006814 188.5990 199.2481  2.13101662 50905
COSMOS 2458 (734)       
1 36113U 09070C   16180.68575381  .00000111  00000-0  10000-3 0  9996
2 36113  64.1701 195.6036 0002471 291.8665 156.4078  2.13102089 50895
COSMOS 2459 (731)       
1 36400U 10007A   16180.53325167 -.00000041  00000-0  10000-3 0  9999
2 36400  65.2497  76.7018 0029516 353.6206 323.6254  2.13102412 49234
COSMOS 2461 (735)       
1 36401U 10007B   16180.48129889 -.00000040  00000-0  10000-3 0  9996
2 36401  65.2433  76.6847 0007005  59.5544 128.4066  2.13102538 49231
COSMOS 2460 (732)       
1 36402U 10007C   16180.61176083 -.00000041  00000-0  10000-3 0  9991
2 36402  65.2327  76.6572 0001553   6.8846 323.0054  2.13101934 49230
COSMOS 2465 (737)       
1 37138U 10041B   16180.96504380 -.00000045  00000-0  00000-0 0  9999
2 37138  64.8470 316.2420 0035824 168.3122 191.2771  2.13094023 45311
COSMOS 2464 (736)       
1 37139U 10041C   16180.66603624 -.00000042  00000-0  00000+0 0  9994
2 37139  64.8532 316.2493 0022592  16.9632 296.5321  2.13102701 45316
COSMOS 2471 (701K)      
1 37372U 11009A   16180.51810808 -.00000041  00000-0  00000+0 0  9995
2 37372  65.2302  76.6096 0007180 241.1931 149.4769  2.13102780 41518
COSMOS 2474 (742)       
1 37829U 11055A   16180.64566185  .00000111  00000-0  00000+0 0  9990
2 37829  64.5064 196.0898 0010633 254.0410 207.0952  2.13102013 36889
COSMOS 2476 (744)       
1 37867U 11064A   16180.68668295  .00000112  00000-0  00000+0 0  9992
2 37867  64.4863 196.1694 0019525 248.4267 290.0221  2.13102103 36238
COSMOS 2477 (745)       
1 37868U 11064B   16180.68655962  .00000112  00000-0  00000+0 0  9990
2 37868  64.4954 196.2102 0017475 249.6111 108.0395  2.13101962 36184
COSMOS 2475 (743)       
1 37869U 11064C   16180.75845344  .00000112  00000-0  00000+0 0  9994
2 37869  64.5024 196.1956 0022899 273.5343  95.4001  2.13102116 36207
COSMOS 2485 (747)       
1 39155U 13019A   16180.62209700  .00000112  00000-0  00000+0 0  9992
2 39155  64.6559 196.1245 0019757 243.5675 290.4578  2.13102121 24700
COSMOS 2492 (754)       
1 39620U 14012A   16180.66907905 -.00000036  00000-0  12858+2 0  9991
2 39620  65.1230  76.6415 0016517 335.6171 267.7145  2.13103726 17650
COSMOS 2500 (755)       
1 40001U 14032A   16180.68089771 -.00000042  00000-0  00000-0 0  9994
2 40001  65.0627  76.6643 0004715 212.3427 263.7794  2.13103055 15872
COSMOS 2501 (702K)      
1 40315U 14075A   16180.75348638 -.00000043  00000-0  00000-0 0  9998
2 40315  64.6186 317.6992 0016728 231.1770 101.7928  2.13101708 12271
COSMOS 2514 (751)       
1 41330U 16008A   16181.23284075  .06606577  00000-0  10000-3 0  9995
2 41330  64.8824  76.8903 0007242 195.5662 164.4572  2.09882583  3059
COSMOS 2516 (753)       
1 41554U 16032A   16181.07456514 -.00000045  00000-0  00000+0 0  9999
2 41554  64.8017 317.3701 0010910 216.2347 275.8184  2.13101637   655
